HST                     
1 20580U 90037B   26192.65455861  .00004090  00000+0  12505-3 0  9992
2 20580  28.4731 273.3159 0002083  72.1261 287.9563 15.31037779792320
POLAR                   
1 23802U 96013A   26191.91433225  .00000231  00000+0  00000+0 0  9996
2 23802  79.8849 226.7704 6494267 208.2622  91.4115  1.29846079145164
SWAS                    
1 25560U 98071A   26193.06120099  .00001726  00000+0  11323-3 0  9999
2 25560  69.8943 163.3665 0008157 233.8940 126.1470 15.09735995501021
CXO                     
1 25867U 99040B   26195.82327180  .00000664  00000+0  00000+0 0  9998
2 25867  56.5906 115.8556 7794608 310.0752   0.4008  0.37803281 17429
XMM-NEWTON              
1 25989U 99066A   26193.28213418  .00000088  00000+0  00000+0 0  9997
2 25989  64.3559 282.6652 4668218  64.4827   0.1151  0.50124873 23131
TERRA                   
1 25994U 99068A   26193.28691045  .00000197  00000+0  49023-4 0  9995
2 25994  97.9443 241.8363 0003295 128.3138 290.4742 14.61122270413270
CLUSTER II-FM7 (SAMBA)  
1 26410U 00041A   26192.68021872  .00012833  00000+0  00000+0 0  9997
2 26410 149.8437  55.3938 9082311 272.8334 359.6328  0.44896530 20420
CLUSTER II-FM8 (TANGO)  
1 26464U 00045B   26190.95011118  .00011224  00000+0  00000+0 0  9993
2 26464 150.0571  56.2797 9085123 273.5523   2.2662  0.44421537 20419
ODIN                    
1 26702U 01007A   26192.65259463  .00258903  00000+0  95764-3 0  9995
2 26702  97.3751 235.3487 0004885 144.8674 215.2921 15.87492259393269
TIMED                   
1 26998U 01055B   26192.96332848  .00000642  00000+0  61829-4 0  9999
2 26998  74.0664 185.1298 0002123 304.2836  55.8147 14.95340530334522
CORIOLIS                
1 27640U 03001A   26193.00083029  .00000053  00000+0  45237-4 0  9998
2 27640  98.7133 199.5071 0014780 137.8354 222.3962 14.19951229217745
SORCE                   
1 27651U 03004A   26193.17649694  .00001537  00000+0  12035-3 0  9994
2 27651  39.9903 119.0882 0018612 234.1633 125.7433 15.03833078275664
MOST                    
1 27843U 03031D   26192.99091251  .00000026  00000+0  32023-4 0  9998
2 27843  98.7051 200.3709 0009876 174.1937 185.9356 14.21327285194230
SCISAT 1                
1 27858U 03036A   26193.21136910  .00000331  00000+0  46889-4 0  9991
2 27858  73.9302 121.6234 0007524 190.4711 169.6310 14.81476928235158
SWIFT                   
1 28485U 04047A   26193.16399894  .00041867  00000+0  31133-3 0  9991
2 28485  20.5532 351.8795 0001681 347.8899  12.1507 15.70909777190792
HINODE (SOLAR-B)        
1 29479U 06041A   26192.98511676  .00000355  00000+0  69282-4 0  9998
2 29479  98.0548 208.7721 0016777 204.9275 155.1121 14.68655867 58512
SHIJIAN-6 02A (SJ-6 02A)
1 29505U 06046A   26193.28741108  .00000984  00000+0  52960-4 0  9995
2 29505  97.6354 234.5446 0004517  71.0417 289.1305 15.17222430 76077
SHIJIAN-6 02B (SJ-6 02B)
1 29506U 06046B   26193.33845414  .00000631  00000+0  53564-4 0  9997
2 29506  97.7156 222.2416 0013747 346.1101  13.9743 15.01434568 74517
FGRST (GLAST)           
1 33053U 08029A   26192.91296240  .00002344  00000+0  80358-4 0  9996
2 33053  25.5832  32.7816 0007682 258.6432 101.3244 15.24065528999618
SDO                     
1 36395U 10005A   26192.24778596 -.00000102  00000+0  00000+0 0  9992
2 36395  34.6998  85.9778 0002020  56.2745 133.8056  1.00277272 60307
CRYOSAT 2               
1 36508U 10013A   26193.30629399  .00000128  00000+0  30989-4 0  9992
2 36508  92.0358 283.4083 0002349  98.3276 261.8197 14.51897708861720
X-SAT                   
1 37389U 11015C   26193.28877962  .00000103  00000+0  61140-4 0  9997
2 37389  98.3521 169.1180 0012696 270.3855  89.5871 14.25213493791256
GCOM-W1 (SHIZUKU)       
1 38337U 12025A   26192.82097160  .00000251  00000+0  65763-4 0  9995
2 38337  98.2025 133.0043 0001375  78.6817 335.9135 14.57088557752620
NUSTAR                  
1 38358U 12031A   26193.33335648  .00005291  00000+0  27179-3 0  9995
2 38358   6.0244 205.4832 0007346 128.9146 129.9432 15.09027109  1308
NEOSSAT                 
1 39089U 13009D   26192.94817035  .00000076  00000+0  41137-4 0  9991
2 39089  98.4188  12.3933 0011239 166.5461 193.6027 14.35834886700291
BRITE-AUSTRIA           
1 39091U 13009F   26192.72551399  .00000091  00000+0  45385-4 0  9994
2 39091  98.4006  11.5552 0010564 160.5615 199.5976 14.36551598700572
IRIS                    
1 39197U 13033A   26192.54197716  .00000593  00000+0  74135-4 0  9999
2 39197  97.9320  31.7423 0023138 237.5928 122.3049 14.85932463703998
HISAKI (SPRINT-A)       
1 39253U 13049A   26193.16906269  .00000080  00000+0  17250-4 0  9995
2 39253  29.7204  92.9973 0136956 219.3757 139.6789 13.55546570634817
CASSIOPE                
1 39265U 13055A   26193.26983183  .00022718 -54086-6  24356-3 0  9993
2 39265  80.9126  36.2067 0283557 337.8178  21.0976 15.27288994671491
STSAT-3                 
1 39422U 13066G   26193.21461384  .00001419  00000+0  11023-3 0  9990
2 39422  97.6189 162.6993 0008959 317.9021  42.1515 15.02877027687965
SWARM B                 
1 39451U 13067A   26193.33736932  .00002171  00000+0  76545-4 0  9997
2 39451  87.7455 334.6760 0002443  82.1822 277.9705 15.28705947687089
